{"type": "FeatureCollection", "features": [ {"type": "Feature", "properties": {"norad_id": 58662, "name": "TIANMU-1 21", "group": "weather", "lat": 69.29017052508729, "lon": -65.80195387637885, "alt_km": 469.1092555912537, "timestamp": "2025-12-06T14:35:36.771344+00:00", "meta": {"OBJECT_NAME": "TIANMU-1 21", "OBJECT_ID": "2023-208C", "EPOCH": "2025-12-06T06:16:34.265280", "MEAN_MOTION": 15.31344503, "ECCENTRICITY": 0.00059176, "INCLINATION": 97.4383, "RA_OF_ASC_NODE": 93.6336, "ARG_OF_PERICENTER": 287.3724, "MEAN_ANOMALY": 72.687, "EPHEMERIS_TYPE": 0, "CLASSIFICATION_TYPE": "U", "NORAD_CAT_ID": 58662, "ELEMENT_SET_NO": 999, "REV_AT_EPOCH": 10800, "BSTAR": 0.00061806524, "MEAN_MOTION_DOT": 0.00018667, "MEAN_MOTION_DDOT": 0}, "tle": {"line1": "1 58662U 23208C   25340.26150770  .00018667  00000+0  61807-3 0  9996", "line2": "2 58662  97.4383  93.6336 0005917 287.3724  72.6870 15.31344503108006"}}, "geometry": {"type": "Point", "coordinates": [-65.80195387637885, 69.29017052508729]}}, {"type": "Feature", "properties": {"norad_id": 58663, "name": "TIANMU-1 22", "group": "weather", "lat": 60.910210548508694, "lon": -74.69643598079855, "alt_km": 479.4579296552438, "timestamp": "2025-12-06T14:35:36.771355+00:00", "meta": {"OBJECT_NAME": "TIANMU-1 22", "OBJECT_ID": "2023-208D", "EPOCH": "2025-12-06T06:13:00.216192", "MEAN_MOTION": 15.27439671, "ECCENTRICITY": 0.000293, "INCLINATION": 97.4392, "RA_OF_ASC_NODE": 91.3723, "ARG_OF_PERICENTER": 318.2233, "MEAN_ANOMALY": 41.8782, "EPHEMERIS_TYPE": 0, "CLASSIFICATION_TYPE": "U", "NORAD_CAT_ID": 58663, "ELEMENT_SET_NO": 999, "REV_AT_EPOCH": 10784, "BSTAR": 0.00056146201, "MEAN_MOTION_DOT": 0.0001502, "MEAN_MOTION_DDOT": 0}, "tle": {"line1": "1 58663U 23208D   25340.25903028  .00015020  00000+0  56146-3 0  9998", "line2": "2 58663  97.4392  91.3723 0002930 318.2233  41.8782 15.27439671107840"}}, "geometry": {"type": "Point", "coordinates": [-74.69643598079855, 60.910210548508694]}}, {"type": "Feature", "properties": {"norad_id": 58700, "name": "TIANMU-1 15", "group": "weather", "lat": -47.9352821531601, "lon": 170.45132456308, "alt_km": 495.27038047778024, "timestamp": "2025-12-06T14:35:36.771365+00:00", "meta": {"OBJECT_NAME": "TIANMU-1 15", "OBJECT_ID": "2024-004A", "EPOCH": "2025-12-06T06:55:45.910848", "MEAN_MOTION": 15.245504, "ECCENTRICITY": 0.00055571, "INCLINATION": 97.4624, "RA_OF_ASC_NODE": 161.7818, "ARG_OF_PERICENTER": 325.0791, "MEAN_ANOMALY": 35.0081, "EPHEMERIS_TYPE": 0, "CLASSIFICATION_TYPE": "U", "NORAD_CAT_ID": 58700, "ELEMENT_SET_NO": 999, "REV_AT_EPOCH": 10636, "BSTAR": 0.0004543013, "MEAN_MOTION_DOT": 0.00011124, "MEAN_MOTION_DDOT": 0}, "tle": {"line1": "1 58700U 24004A   25340.28872582  .00011124  00000+0  45430-3 0  9993", "line2": "2 58700  97.4624 161.7818 0005557 325.0791  35.0081 15.24550400106364"}}, "geometry": {"type": "Point", "coordinates": [170.45132456308, -47.9352821531601]}}, {"type": "Feature", "properties": {"norad_id": 58701, "name": "TIANMU-1 16", "group": "weather", "lat": 38.47726454073247, "lon": 155.5207743271189, "alt_km": 489.2788345536701, "timestamp": "2025-12-06T14:35:36.771375+00:00", "meta": {"OBJECT_NAME": "TIANMU-1 16", "OBJECT_ID": "2024-004B", "EPOCH": "2025-12-06T06:32:46.354272", "MEAN_MOTION": 15.24301961, "ECCENTRICITY": 0.00048818, "INCLINATION": 97.4562, "RA_OF_ASC_NODE": 161.162, "ARG_OF_PERICENTER": 323.5878, "MEAN_ANOMALY": 36.5027, "EPHEMERIS_TYPE": 0, "CLASSIFICATION_TYPE": "U", "NORAD_CAT_ID": 58701, "ELEMENT_SET_NO": 999, "REV_AT_EPOCH": 10636, "BSTAR": 0.00048206576, "MEAN_MOTION_DOT": 0.00011721, "MEAN_MOTION_DDOT": 0}, "tle": {"line1": "1 58701U 24004B   25340.27275873  .00011721  00000+0  48207-3 0  9991", "line2": "2 58701  97.4562 161.1620 0004881 323.5878  36.5027 15.24301961106361"}}, "geometry": {"type": "Point", "coordinates": [155.5207743271189, 38.47726454073247]}}, {"type": "Feature", "properties": {"norad_id": 58702, "name": "TIANMU-1 17", "group": "weather", "lat": 56.75594047633476, "lon": -6.566417819610524, "alt_km": 489.90759006434837, "timestamp": "2025-12-06T14:35:36.771385+00:00", "meta": {"OBJECT_NAME": "TIANMU-1 17", "OBJECT_ID": "2024-004C", "EPOCH": "2025-12-06T06:10:51.725568", "MEAN_MOTION": 15.24346879, "ECCENTRICITY": 0.00041114, "INCLINATION": 97.4598, "RA_OF_ASC_NODE": 161.5536, "ARG_OF_PERICENTER": 327.4727, "MEAN_ANOMALY": 32.6257, "EPHEMERIS_TYPE": 0, "CLASSIFICATION_TYPE": "U", "NORAD_CAT_ID": 58702, "ELEMENT_SET_NO": 999, "REV_AT_EPOCH": 10635, "BSTAR": 0.00049253623, "MEAN_MOTION_DOT": 0.00011993, "MEAN_MOTION_DDOT": 0}, "tle": {"line1": "1 58702U 24004C   25340.25754312  .00011993  00000+0  49254-3 0  9994", "line2": "2 58702  97.4598 161.5536 0004111 327.4727  32.6257 15.24346879106351"}}, "geometry": {"type": "Point", "coordinates": [-6.566417819610524, 56.75594047633476]}}, {"type": "Feature", "properties": {"norad_id": 58703, "name": "TIANMU-1 18", "group": "weather", "lat": -33.91736964567581, "lon": -22.95945494421777, "alt_km": 499.9919417056353, "timestamp": "2025-12-06T14:35:36.771395+00:00", "meta": {"OBJECT_NAME": "TIANMU-1 18", "OBJECT_ID": "2024-004D", "EPOCH": "2025-12-06T07:21:17.565120", "MEAN_MOTION": 15.24339056, "ECCENTRICITY": 0.00034366, "INCLINATION": 97.4616, "RA_OF_ASC_NODE": 161.7962, "ARG_OF_PERICENTER": 329.4028, "MEAN_ANOMALY": 30.7009, "EPHEMERIS_TYPE": 0, "CLASSIFICATION_TYPE": "U", "NORAD_CAT_ID": 58703, "ELEMENT_SET_NO": 999, "REV_AT_EPOCH": 10636, "BSTAR": 0.00045296159, "MEAN_MOTION_DOT": 0.00011019, "MEAN_MOTION_DDOT": 0}, "tle": {"line1": "1 58703U 24004D   25340.30645330  .00011019  00000+0  45296-3 0  9991", "line2": "2 58703  97.4616 161.7962 0003436 329.4028  30.7009 15.24339056106367"}}, "geometry": {"type": "Point", "coordinates": [-22.95945494421777, -33.91736964567581]}}, {"type": "Feature", "properties": {"norad_id": 58990, "name": "INSAT-3DS", "group": "weather", "lat": 0.005025836426891971, "lon": 16.647503488464046, "alt_km": 35789.68702187001, "timestamp": "2025-12-06T14:35:36.771407+00:00", "meta": {"OBJECT_NAME": "INSAT-3DS", "OBJECT_ID": "2024-033A", "EPOCH": "2025-12-06T03:46:58.309248", "MEAN_MOTION": 1.0026975, "ECCENTRICITY": 0.00017349, "INCLINATION": 0.0132, "RA_OF_ASC_NODE": 36.24, "ARG_OF_PERICENTER": 226.2315, "MEAN_ANOMALY": 311.5683, "EPHEMERIS_TYPE": 0, "CLASSIFICATION_TYPE": "U", "NORAD_CAT_ID": 58990, "ELEMENT_SET_NO": 999, "REV_AT_EPOCH": 4513, "BSTAR": 0, "MEAN_MOTION_DOT": -1.47e-06, "MEAN_MOTION_DDOT": 0}, "tle": {"line1": "1 58990U 24033A   25340.15761932 -.00000147  00000+0  00000+0 0  9992", "line2": "2 58990   0.0132  36.2400 0001734 226.2315 311.5683  1.00269750 45130"}}, "geometry": {"type": "Point", "coordinates": [16.647503488464046, 0.005025836426891971]}}, {"type": "Feature", "properties": {"norad_id": 59051, "name": "METEOR-M2 4", "group": "weather", "lat": 61.88371234842753, "lon": 134.21767166399513, "alt_km": 812.1979047759414, "timestamp": "2025-12-06T14:35:36.771418+00:00", "meta": {"OBJECT_NAME": "METEOR-M2 4", "OBJECT_ID": "2024-039A", "EPOCH": "2025-12-06T07:17:38.019264", "MEAN_MOTION": 14.22399757, "ECCENTRICITY": 0.00074002, "INCLINATION": 98.6758, "RA_OF_ASC_NODE": 297.314, "ARG_OF_PERICENTER": 16.7463, "MEAN_ANOMALY": 343.3958, "EPHEMERIS_TYPE": 0, "CLASSIFICATION_TYPE": "U", "NORAD_CAT_ID": 59051, "ELEMENT_SET_NO": 999, "REV_AT_EPOCH": 9184, "BSTAR": 6.2291167e-05, "MEAN_MOTION_DOT": 9.5e-07, "MEAN_MOTION_DDOT": 0}, "tle": {"line1": "1 59051U 24039A   25340.30391226  .00000095  00000+0  62291-4 0  9995", "line2": "2 59051  98.6758 297.3140 0007400  16.7463 343.3958 14.22399757 91845"}}, "geometry": {"type": "Point", "coordinates": [134.21767166399513, 61.88371234842753]}}, {"type": "Feature", "properties": {"norad_id": 60133, "name": "GOES 19", "group": "weather", "lat": -0.004430940162065716, "lon": -140.66436127023738, "alt_km": 35785.55004187344, "timestamp": "2025-12-06T14:35:36.771429+00:00", "meta": {"OBJECT_NAME": "GOES 19", "OBJECT_ID": "2024-119A", "EPOCH": "2025-12-06T06:27:38.480832", "MEAN_MOTION": 1.00270174, "ECCENTRICITY": 0.00014311, "INCLINATION": 0.0049, "RA_OF_ASC_NODE": 245.6663, "ARG_OF_PERICENTER": 54.2523, "MEAN_ANOMALY": 157.1198, "EPHEMERIS_TYPE": 0, "CLASSIFICATION_TYPE": "U", "NORAD_CAT_ID": 60133, "ELEMENT_SET_NO": 999, "REV_AT_EPOCH": 503, "BSTAR": 0, "MEAN_MOTION_DOT": -2.4e-06, "MEAN_MOTION_DDOT": 0}, "tle": {"line1": "1 60133U 24119A   25340.26919538 -.00000240  00000+0  00000+0 0  9992", "line2": "2 60133   0.0049 245.6663 0001431  54.2523 157.1198  1.00270174  5032"}}, "geometry": {"type": "Point", "coordinates": [-140.66436127023738, -0.004430940162065716]}}, {"type": "Feature", "properties": {"norad_id": 65815, "name": "FENGYUN 3H", "group": "weather", "lat": 49.81675684803164, "lon": -90.06120989119256, "alt_km": 820.7031827217697, "timestamp": "2025-12-06T14:35:36.771440+00:00", "meta": {"OBJECT_NAME": "FENGYUN 3H", "OBJECT_ID": "2025-219A", "EPOCH": "2025-12-06T07:35:28.357152", "MEAN_MOTION": 14.19902016, "ECCENTRICITY": 6.155e-05, "INCLINATION": 98.6575, "RA_OF_ASC_NODE": 280.0465, "ARG_OF_PERICENTER": 77.0575, "MEAN_ANOMALY": 283.067, "EPHEMERIS_TYPE": 0, "CLASSIFICATION_TYPE": "U", "NORAD_CAT_ID": 65815, "ELEMENT_SET_NO": 999, "REV_AT_EPOCH": 1001, "BSTAR": 0.00012863918, "MEAN_MOTION_DOT": 2.3e-06, "MEAN_MOTION_DDOT": 0}, "tle": {"line1": "1 65815U 25219A   25340.31630043  .00000230  00000+0  12864-3 0  9996", "line2": "2 65815  98.6575 280.0465 0000615  77.0575 283.0670 14.19902016 10016"}}, "geometry": {"type": "Point", "coordinates": [-90.06120989119256, 49.81675684803164]}}]}